start=new Date('2022-09-27T00:00:00.000Z').valueOf();
sats=[{"RA_OF_ASC_NODE":"324.7630","APOAPSIS":"540.803","CENTER_NAME":"EARTH","PERIAPSIS":"538.711","TLE_LINE1":"1 52133U 22029AX  22269.84783052 -.00001372  00000-0 -68150-4 0  9996","COUNTRY_CODE":"US","CLASSIFICATION_TYPE":"U","MEAN_ANOMALY":"308.5454","LAUNCH_DATE":"2022-03-19","OBJECT_TYPE":"PAYLOAD","REV_AT_EPOCH":"3074","EPOCH":"2022-09-26T20:20:52.556928","DECAY_DATE":null,"SEMIMAJOR_AXIS":"6917.892","MEAN_MOTION_DOT":"-0.00001372","PERIOD":"95.438","TIME_SYSTEM":"UTC","TLE_LINE2":"2 52133  53.2190 324.7630 0001512  51.5673 308.5454 15.08836307 30741","SITE":"AFETR","GP_ID":"213600445","OBJECT_ID":"2022-029AX","ELEMENT_SET_NO":"999","ARG_OF_PERICENTER":"51.5673","MEAN_ELEMENT_THEORY":"SGP4","REF_FRAME":"TEME","INCLINATION":"53.2190","RCS_SIZE":"LARGE","OBJECT_NAME":"STARLINK-3707","FILE":"3584555","NORAD_CAT_ID":"52133","EPHEMERIS_TYPE":"0","MEAN_MOTION_DDOT":"0.0000000000000","MEAN_MOTION":"15.08836307","BSTAR":"-0.00006815000000","ECCENTRICITY":"0.00015120"},{"BSTAR":"-0.00007639100000","ECCENTRICITY":"0.00018310","NORAD_CAT_ID":"52134","FILE":"3584434","EPHEMERIS_TYPE":"0","MEAN_MOTION_DDOT":"0.0000000000000","MEAN_MOTION":"15.08833481","MEAN_ELEMENT_THEORY":"SGP4","REF_FRAME":"TEME","RCS_SIZE":"LARGE","INCLINATION":"53.2190","OBJECT_NAME":"STARLINK-3721","SITE":"AFETR","GP_ID":"213574967","OBJECT_ID":"2022-029AY","ELEMENT_SET_NO":"999","ARG_OF_PERICENTER":"59.1869","REV_AT_EPOCH":"3067","EPOCH":"2022-09-26T09:18:28.794528","DECAY_DATE":null,"SEMIMAJOR_AXIS":"6917.900","MEAN_MOTION_DOT":"-0.00001503","PERIOD":"95.438","TIME_SYSTEM":"UTC","TLE_LINE2":"2 52134  53.2190 326.8236 0001831  59.1869 300.9303 15.08833481 30673","MEAN_ANOMALY":"300.9303","LAUNCH_DATE":"2022-03-19","OBJECT_TYPE":"PAYLOAD","CENTER_NAME":"EARTH","PERIAPSIS":"538.499","TLE_LINE1":"1 52134U 22029AY  22269.38783327 -.00001503  00000-0 -76391-4 0  9993","COUNTRY_CODE":"US","CLASSIFICATION_TYPE":"U","RA_OF_ASC_NODE":"326.8236","APOAPSIS":"541.032"},{"SEMIMAJOR_AXIS":"6917.879","DECAY_DATE":null,"REV_AT_EPOCH":"3070","EPOCH":"2022-09-26T13:43:26.436000","TLE_LINE2":"2 52135  53.2198 326.0045 0001909  42.4840 317.6300 15.08840573 30708","TIME_SYSTEM":"UTC","PERIOD":"95.438","MEAN_MOTION_DOT":"0.00000450","LAUNCH_DATE":"2022-03-19","MEAN_ANOMALY":"317.6300","OBJECT_TYPE":"PAYLOAD","TLE_LINE1":"1 52135U 22029AZ  22269.57183375  .00000450  00000-0  46347-4 0  9998","PERIAPSIS":"538.423","CENTER_NAME":"EARTH","CLASSIFICATION_TYPE":"U","COUNTRY_CODE":"US","APOAPSIS":"541.064","RA_OF_ASC_NODE":"326.0045","ECCENTRICITY":"0.00019090","BSTAR":"0.00004634700000","FILE":"3584555","NORAD_CAT_ID":"52135","MEAN_MOTION":"15.08840573","MEAN_MOTION_DDOT":"0.0000000000000","EPHEMERIS_TYPE":"0","REF_FRAME":"TEME","MEAN_ELEMENT_THEORY":"SGP4","OBJECT_NAME":"STARLINK-3729","RCS_SIZE":"LARGE","INCLINATION":"53.2198","GP_ID":"213600944","SITE":"AFETR","ARG_OF_PERICENTER":"42.4840","ELEMENT_SET_NO":"999","OBJECT_ID":"2022-029AZ"},{"LAUNCH_DATE":"2022-03-19","MEAN_ANOMALY":"296.2549","OBJECT_TYPE":"PAYLOAD","DECAY_DATE":null,"REV_AT_EPOCH":"3071","EPOCH":"2022-09-26T15:29:25.178784","SEMIMAJOR_AXIS":"6917.866","PERIOD":"95.437","MEAN_MOTION_DOT":"-0.00001671","TLE_LINE2":"2 52136  53.2193 325.6686 0001523  63.8600 296.2549 15.08844651 30712","TIME_SYSTEM":"UTC","APOAPSIS":"540.785","RA_OF_ASC_NODE":"325.6686","CENTER_NAME":"EARTH","TLE_LINE1":"1 52136U 22029BA  22269.64543031 -.00001671  00000-0 -86923-4 0  9998","PERIAPSIS":"538.678","CLASSIFICATION_TYPE":"U","COUNTRY_CODE":"US","NORAD_CAT_ID":"52136","FILE":"3584555","MEAN_MOTION":"15.08844651","MEAN_MOTION_DDOT":"0.0000000000000","EPHEMERIS_TYPE":"0","BSTAR":"-0.00008692300000","ECCENTRICITY":"0.00015230","GP_ID":"213599695","SITE":"AFETR","OBJECT_ID":"2022-029BA","ARG_OF_PERICENTER":"63.8600","ELEMENT_SET_NO":"999","MEAN_ELEMENT_THEORY":"SGP4","REF_FRAME":"TEME","RCS_SIZE":"LARGE","INCLINATION":"53.2193","OBJECT_NAME":"STARLINK-3720"},{"RA_OF_ASC_NODE":"326.0203","APOAPSIS":"541.081","COUNTRY_CODE":"US","CLASSIFICATION_TYPE":"U","PERIAPSIS":"538.417","TLE_LINE1":"1 52137U 22029BB  22269.56815208 -.00001624  00000-0 -83962-4 0  9996","CENTER_NAME":"EARTH","OBJECT_TYPE":"PAYLOAD","MEAN_ANOMALY":"312.2391","LAUNCH_DATE":"2022-03-19","TIME_SYSTEM":"UTC","TLE_LINE2":"2 52137  53.2201 326.0203 0001925  47.8765 312.2391 15.08838829 30706","MEAN_MOTION_DOT":"-0.00001624","PERIOD":"95.438","SEMIMAJOR_AXIS":"6917.884","EPOCH":"2022-09-26T13:38:08.339712","REV_AT_EPOCH":"3070","DECAY_DATE":null,"ELEMENT_SET_NO":"999","ARG_OF_PERICENTER":"47.8765","OBJECT_ID":"2022-029BB","SITE":"AFETR","GP_ID":"213599945","OBJECT_NAME":"STARLINK-3733","RCS_SIZE":"LARGE","INCLINATION":"53.2201","REF_FRAME":"TEME","MEAN_ELEMENT_THEORY":"SGP4","EPHEMERIS_TYPE":"0","MEAN_MOTION":"15.08838829","MEAN_MOTION_DDOT":"0.0000000000000","FILE":"3584555","NORAD_CAT_ID":"52137","ECCENTRICITY":"0.00019250","BSTAR":"-0.00008396200000"},{"APOAPSIS":"540.902","RA_OF_ASC_NODE":"325.9876","TLE_LINE1":"1 52138U 22029BC  22269.57551888 -.00000604  00000-0 -19891-4 0  9996","PERIAPSIS":"538.662","CENTER_NAME":"EARTH","CLASSIFICATION_TYPE":"U","COUNTRY_CODE":"US","LAUNCH_DATE":"2022-03-19","MEAN_ANOMALY":"308.5253","OBJECT_TYPE":"PAYLOAD","SEMIMAJOR_AXIS":"6917.917","DECAY_DATE":null,"EPOCH":"2022-09-26T13:48:44.831232","REV_AT_EPOCH":"3070","TLE_LINE2":"2 52138  53.2198 325.9876 0001619  51.5884 308.5253 15.08828113 30700","TIME_SYSTEM":"UTC","PERIOD":"95.438","MEAN_MOTION_DOT":"-0.00000604","GP_ID":"213600697","SITE":"AFETR","ARG_OF_PERICENTER":"51.5884","ELEMENT_SET_NO":"999","OBJECT_ID":"2022-029BC","REF_FRAME":"TEME","MEAN_ELEMENT_THEORY":"SGP4","OBJECT_NAME":"STARLINK-3723","INCLINATION":"53.2198","RCS_SIZE":"LARGE","NORAD_CAT_ID":"52138","FILE":"3584555","MEAN_MOTION_DDOT":"0.0000000000000","MEAN_MOTION":"15.08828113","EPHEMERIS_TYPE":"0","ECCENTRICITY":"0.00016190","BSTAR":"-0.00001989100000"},{"ECCENTRICITY":"0.00020680","BSTAR":"0.00007452600000","MEAN_MOTION":"15.08843837","MEAN_MOTION_DDOT":"0.0000000000000","EPHEMERIS_TYPE":"0","NORAD_CAT_ID":"52139","FILE":"3584345","OBJECT_NAME":"STARLINK-3730","INCLINATION":"53.2191","RCS_SIZE":"LARGE","REF_FRAME":"TEME","MEAN_ELEMENT_THEORY":"SGP4","ARG_OF_PERICENTER":"43.3996","ELEMENT_SET_NO":"999","OBJECT_ID":"2022-029BD","GP_ID":"213544665","SITE":"AFETR","TLE_LINE2":"2 52139  53.2191 336.3723 0002068  43.3996 316.7159 15.08843837 30541","TIME_SYSTEM":"UTC","PERIOD":"95.437","MEAN_MOTION_DOT":"0.00000898","SEMIMAJOR_AXIS":"6917.869","DECAY_DATE":null,"REV_AT_EPOCH":"3054","EPOCH":"2022-09-26T11:45:31.778496","OBJECT_TYPE":"PAYLOAD","LAUNCH_DATE":"2022-03-19","MEAN_ANOMALY":"316.7159","CLASSIFICATION_TYPE":"U","COUNTRY_CODE":"US","TLE_LINE1":"1 52139U 22029BD  22269.48995114  .00000898  00000-0  74526-4 0  9990","PERIAPSIS":"538.303","CENTER_NAME":"EARTH","APOAPSIS":"541.164","RA_OF_ASC_NODE":"336.3723"},{"COUNTRY_CODE":"US","CLASSIFICATION_TYPE":"U","PERIAPSIS":"538.603","TLE_LINE1":"1 52140U 22029BE  22269.63070995 -.00001493  00000-0 -75706-4 0  9995","CENTER_NAME":"EARTH","RA_OF_ASC_NODE":"325.7390","APOAPSIS":"540.890","TIME_SYSTEM":"UTC","TLE_LINE2":"2 52140  53.2199 325.7390 0001653  50.7654 309.3485 15.08839542 30712","MEAN_MOTION_DOT":"-0.00001493","PERIOD":"95.438","SEMIMAJOR_AXIS":"6917.882","REV_AT_EPOCH":"3071","EPOCH":"2022-09-26T15:08:13.339680","DECAY_DATE":null,"OBJECT_TYPE":"PAYLOAD","MEAN_ANOMALY":"309.3485","LAUNCH_DATE":"2022-03-19","OBJECT_NAME":"STARLINK-3682","RCS_SIZE":"LARGE","INCLINATION":"53.2199","REF_FRAME":"TEME","MEAN_ELEMENT_THEORY":"SGP4","ELEMENT_SET_NO":"999","ARG_OF_PERICENTER":"50.7654","OBJECT_ID":"2022-029BE","SITE":"AFETR","GP_ID":"213600196","ECCENTRICITY":"0.00016530","BSTAR":"-0.00007570600000","EPHEMERIS_TYPE":"0","MEAN_MOTION":"15.08839542","MEAN_MOTION_DDOT":"0.0000000000000","FILE":"3584555","NORAD_CAT_ID":"52140"},{"SEMIMAJOR_AXIS":"6917.886","DECAY_DATE":null,"REV_AT_EPOCH":"2414","EPOCH":"2022-09-26T16:38:19.230432","TLE_LINE2":"2 52261  53.2198   5.4598 0001528  49.1781 310.9343 15.08838303 24146","TIME_SYSTEM":"UTC","PERIOD":"95.438","MEAN_MOTION_DOT":"0.00000170","LAUNCH_DATE":"2022-04-21","MEAN_ANOMALY":"310.9343","OBJECT_TYPE":"PAYLOAD","TLE_LINE1":"1 52261U 22041A   22269.69327813  .00000170  00000-0  28745-4 0  9993","PERIAPSIS":"538.694","CENTER_NAME":"EARTH","CLASSIFICATION_TYPE":"U","COUNTRY_CODE":"US","APOAPSIS":"540.808","RA_OF_ASC_NODE":"5.4598","ECCENTRICITY":"0.00015280","BSTAR":"0.00002874500000","FILE":"3584555","NORAD_CAT_ID":"52261","MEAN_MOTION_DDOT":"0.0000000000000","MEAN_MOTION":"15.08838303","EPHEMERIS_TYPE":"0","REF_FRAME":"TEME","MEAN_ELEMENT_THEORY":"SGP4","OBJECT_NAME":"STARLINK-3810","INCLINATION":"53.2198","RCS_SIZE":"LARGE","GP_ID":"213600708","SITE":"AFETR","ARG_OF_PERICENTER":"49.1781","ELEMENT_SET_NO":"999","OBJECT_ID":"2022-041A"},{"MEAN_ANOMALY":"309.3136","LAUNCH_DATE":"2022-04-21","OBJECT_TYPE":"PAYLOAD","SEMIMAJOR_AXIS":"6917.908","EPOCH":"2022-09-26T18:20:23.322912","REV_AT_EPOCH":"2415","DECAY_DATE":null,"TIME_SYSTEM":"UTC","TLE_LINE2":"2 52262  53.2183   5.1369 0001788  50.8014 309.3136 15.08830991 24158","MEAN_MOTION_DOT":"0.00000513","PERIOD":"95.438","RA_OF_ASC_NODE":"5.1369","APOAPSIS":"541.010","PERIAPSIS":"538.536","TLE_LINE1":"1 52262U 22041B   22269.76415883  .00000513  00000-0  50372-4 0  9999","CENTER_NAME":"EARTH","COUNTRY_CODE":"US","CLASSIFICATION_TYPE":"U","FILE":"3584555","NORAD_CAT_ID":"52262","EPHEMERIS_TYPE":"0","MEAN_MOTION":"15.08830991","MEAN_MOTION_DDOT":"0.0000000000000","ECCENTRICITY":"0.00017880","BSTAR":"0.00005037200000","SITE":"AFETR","GP_ID":"213601456","ELEMENT_SET_NO":"999","ARG_OF_PERICENTER":"50.8014","OBJECT_ID":"2022-041B","REF_FRAME":"TEME","MEAN_ELEMENT_THEORY":"SGP4","OBJECT_NAME":"STARLINK-3761","RCS_SIZE":"LARGE","INCLINATION":"53.2183"}];
